satname,norad_id,inclination_deg,eccentricity,mean_motion_rev_per_day,perigee_km,apogee_km,l1,l2
STARLINK-1454,45671,53.052,0.0007996,15.48329168,416.1764222047459,427.05058320867374,1 45671U 20035Q   26056.56114112  .00079757  00000+0  14756-2 0  9992,2 45671  53.0520 111.0187 0007996  11.7947 348.3246 15.48329168317030
STARLINK-1456,45673,53.0488,0.0001433,15.49213634,418.0511796639521,419.9992463541994,1 45673U 20035S   26056.42900646  .00022874  00000+0  41949-3 0  9997,2 45673  53.0488 105.1274 0001433  91.0419 269.0753 15.49213634317124
STARLINK-1457,45674,53.0476,0.000994,15.75304161,337.08422384029745,350.44736659719274,1 45674U 20035T   26056.49835319  .00097788  00000+0  63113-3 0  9992,2 45674  53.0476  83.3258 0009940  21.1868 338.9560 15.75304161317402
STARLINK-1458,45675,53.0521,0.0005308,15.41332077,438.55668235859866,445.79712760012444,1 45675U 20035U   26056.43046259  .00036859  00000+0  87579-3 0  9998,2 45675  53.0521 113.6393 0005308  32.6814 327.4518 15.41332077316969
STARLINK-1460,45676,53.1025,3.91e-05,15.17871883,512.0041037730589,512.5429338756312,1 45676U 20035V   26056.91671296  .00034532  00000+0  16913-2 0  9996,2 45676  53.1025 119.1025 0000391 120.5022 219.7366 15.17871883  5480
STARLINK-1392,45677,53.1076,0.000142,15.18890867,508.21344318032243,510.16944445836725,1 45677U 20035W   26056.91671296  .01469666  00000+0  63583-1 0  9992,2 45677  53.1076 119.1832 0001420 120.6296 115.2480 15.18890867  5730
STARLINK-1394,45679,53.0503,0.0001588,15.47504919,422.94760965056594,425.1079771889554,1 45679U 20035Y   26056.48422256  .00059483  00000+0  11387-2 0  9993,2 45679  53.0503  95.0143 0001588  80.8818 279.2369 15.47504919317268
STARLINK-1402,45685,53.0479,0.0001388,15.42720833,437.1371053655339,439.0292880921452,1 45685U 20035AE  26056.28907147  .00053133  00000+0  11992-2 0  9993,2 45685  53.0479  82.3377 0001388 253.3958 106.6894 15.42720833317430
STARLINK-1404,45686,53.1623,0.0001434,15.30196372,474.2431297546291,476.2086742349211,1 45686U 20035AF  26056.41670172 -.00000338  00000+0  72406-6 0  9995,2 45686  53.1623 106.7088 0001434  93.5051 266.6114 15.30196372317099
STARLINK-1413,45689,53.1606,0.0001188,15.30199801,474.4014853010831,476.02984189395374,1 45689U 20035AJ  26056.42299834  .00000331  00000+0  23310-4 0  9991,2 45689  53.1606 106.5550 0001188  91.1666 268.9471 15.30199801317010
STARLINK-1417,45693,53.0511,0.0003069,15.1176214,528.7056055500288,532.9463270187334,1 45693U 20035AN  26056.37027820  .00025256  00000+0  14757-2 0  9990,2 45693  53.0511 110.1096 0003069 201.0188 159.0677 15.11762140317037
STARLINK-1420,45695,53.0534,0.0003338,15.5109611,411.2574938773414,415.79160712845714,1 45695U 20035AQ  26056.91671296  .00213027  00000+0  35057-2 0  9995,2 45695  53.0534  79.1018 0003338  47.5012  68.6496 15.51096110  5624
STARLINK-1422,45696,53.161,0.0001211,15.30199326,474.38714068326044,476.04702304188777,1 45696U 20035AR  26056.56099906  .00001868  00000+0  75192-4 0  9993,2 45696  53.1610 105.9177 0001211  97.3954 262.7185 15.30199326317113
STARLINK-1351,45697,53.0537,0.0002106,15.49818563,415.8252646809997,418.6874843703499,1 45697U 20035AS  26056.54050881  .00022866  00000+0  41054-3 0  9991,2 45697  53.0537  80.0077 0002106  66.3741 293.7488 15.49818563317488
STARLINK-1398,45699,53.0401,0.0004866,15.87717355,305.4304335179222,311.9380479494039,1 45699U 20035AU  26056.91671296  .00204884  00000+0  73360-3 0  9990,2 45699  53.0401 359.2792 0004866  92.4691  16.4938 15.87717355  5982
STARLINK-1400,45700,53.0521,0.0006849,15.48046387,417.7838330108734,427.09926550764794,1 45700U 20035AV  26056.62442651  .00073873  00000+0  13823-2 0  9991,2 45700  53.0521  80.7845 0006849  45.1409 315.0153 15.48046387317472
STARLINK-1403,45701,53.0548,0.0001613,15.06404654,546.0802377136552,548.3143505569442,1 45701U 20035AW  26056.46670956  .00000782  00000+0  71354-4 0  9999,2 45701  53.0548  91.4913 0001613  84.1112 276.0061 15.06404654317300
STARLINK-1407,45703,53.0361,0.0012122,15.56788573,388.74567603870855,405.1712174397844,1 45703U 20035AY  26056.25623906  .00049710  00000+0  68213-3 0  9994,2 45703  53.0361  16.1907 0012122  55.7957 304.4201 15.56788573318358
STARLINK-1411,45706,53.0454,0.0005371,15.59411375,385.724723414809,392.99436820431765,1 45706U 20035BB  26056.33436676  .00083024  00000+0  10266-2 0  9992,2 45706  53.0454  41.6888 0005371  72.3408 287.8190 15.59411375317995
STARLINK-1423,45710,53.0524,0.0006316,15.50201101,411.84714635757064,420.42967505637444,1 45710U 20035BF  26056.48073212  .00095732  00000+0  16543-2 0  9999,2 45710  53.0524  80.7225 0006316  53.4505 306.7083 15.50201101317453
STARLINK-1433,45711,53.0523,0.0006505,15.52242946,405.76310574332274,414.5947047360396,1 45711U 20035BG  26056.58605015  .00078167  00000+0  12601-2 0  9997,2 45711  53.0523  79.4389 0006505  49.8408 310.3170 15.52242946317485
STARLINK-1434,45712,53.0565,0.0004454,15.25352322,486.6687352844938,492.7866291434102,1 45712U 20035BH  26056.84536877  .00039420  00000+0  15477-2 0  9999,2 45712  53.0565  74.8369 0004454  39.6644 320.4679 15.25352322317586
STARLINK-1465,45731,53.0529,0.0003521,15.47745663,420.92761974837504,425.7172074674372,1 45731U 20038B   26056.64274097  .00027247  00000+0  52388-3 0  9991,2 45731  53.0529 280.8623 0003521 171.2158 188.8911 15.47745663314519
STARLINK-1471,45735,53.0457,0.0002388,15.48111108,420.6280764318699,423.875942222724,1 45735U 20038F   26056.77070904  .00024286  00000+0  46220-3 0  9998,2 45735  53.0457 199.0931 0002388 172.8679 187.2363 15.48111108315686
STARLINK-1480,45741,53.0487,0.0010025,15.46238222,420.9193360797344,434.56512393589946,1 45741U 20038M   26056.58524257  .00058969  00000+0  11775-2 0  9990,2 45741  53.0487 275.0749 0010025 130.2066 229.9820 15.46238222314601
STARLINK-1500,45744,53.0351,0.0003222,15.33986883,461.72687211340235,466.13590098169516,1 45744U 20038Q   26056.49724328  .00022365  00000+0  67978-3 0  9992,2 45744  53.0351 249.9104 0003222 179.2138 180.8868 15.33986883314946
STARLINK-1504,45746,53.0222,0.0002615,15.52170295,408.6155265379293,412.16592653890893,1 45746U 20038S   26055.74867391  .00030400  00000+0  49923-3 0  9998,2 45746  53.0222 204.5710 0002615 151.1922 208.9232 15.52170295315503
STARLINK-1506,45747,53.0773,0.0003315,15.2569852,486.41236016382754,490.9650656114718,1 45747U 20038T   26055.88781622  .00006438  00000+0  26240-3 0  9997,2 45747  53.0773 261.5529 0003315 174.9314 185.1718 15.25698520314737
STARLINK-1464,45751,53.0516,0.0003686,15.42585955,435.9679090813115,440.993119512852,1 45751U 20038X   26056.58586537  .00035425  00000+0  80799-3 0  9995,2 45751  53.0516 262.1086 0003686 172.3269 187.7792 15.42585955314785
STARLINK-1477,45754,53.0502,0.0001818,15.13496681,524.2911955696482,526.8013748121439,1 45754U 20038AA  26055.89181919  .00020303  00000+0  11346-2 0  9996,2 45754  53.0502 271.0914 0001818  89.6578 270.4622 15.13496681314596
STARLINK-1478,45755,53.0545,0.000635,15.52327494,405.6219937630767,414.2428419237385,1 45755U 20038AB  26055.96038798  .00076841  00000+0  12353-2 0  9998,2 45755  53.0545 259.2994 0006350 159.7097 200.4165 15.52327494314752
STARLINK-1484,45756,53.0012,0.0006825,15.9362018,287.60940450933776,296.71436248531154,1 45756U 20038AC  26056.91671296  .00315024  49375-4  85845-3 0  9990,2 45756  53.0012 117.2865 0006825  10.4536 158.2121 15.93620180  5943
STARLINK-1493,45759,53.0531,0.0001845,15.45222182,429.4690774386863,431.9815476320118,1 45759U 20038AF  26056.83105949  .00035313  00000+0  73706-3 0  9991,2 45759  53.0531 261.2603 0001845 179.5558 180.5450 15.45222182314808
STARLINK-1494,45760,53.0475,0.0002558,15.71170021,353.82948726119594,357.2744425356377,1 45760U 20038AG  26056.80213226  .00079849  00000+0  61870-3 0  9999,2 45760  53.0475 210.6085 0002558 304.8939  55.1837 15.71170021315526
STARLINK-1502,45764,53.052,0.0001182,15.45054375,430.41344085543005,432.02317244992173,1 45764U 20038AL  26056.59775174  .00036421  00000+0  76416-3 0  9995,2 45764  53.0520 263.7144 0001182  83.8853 276.2287 15.45054375314761
STARLINK-1470,45772,53.0431,0.0002277,15.26642172,484.29579610763267,487.42165976213437,1 45772U 20038AU  26055.91415225  .00038816  00000+0  14665-2 0  9994,2 45772  53.0431 233.5556 0002277 140.0007 220.1159 15.26642172315120
STARLINK-1482,45773,53.1609,0.0001015,15.30186278,474.56042175041785,475.9516605377694,1 45773U 20038AV  26055.87930352  .00000169  00000+0  17834-4 0  9996,2 45773  53.1609 250.5191 0001015  80.7773 279.3342 15.30186278314889
STARLINK-1496,45780,53.0501,0.0006834,15.45608268,424.93898160701974,434.24378476115635,1 45780U 20038BC  26055.84884172  .00069139  00000+0  14087-2 0  9996,2 45780  53.0501 239.1416 0006834 154.6514 205.4828 15.45608268315028
STARLINK-1513,45786,53.1585,0.0001412,15.30195571,474.26059846742555,476.1959888263518,1 45786U 20038BJ  26055.95412604 -.00001842  00000+0 -50091-4 0  9997,2 45786  53.1585 250.3029 0001412  84.9987 275.1175 15.30195571314893
STARLINK-1522,46027,53.0569,0.0001391,15.06397725,546.2552135401011,548.1818474486836,1 46027U 20055A   26056.48789614 -.00000421  00000+0 -93524-5 0  9993,2 46027  53.0569 181.3921 0001391  94.5675 265.5473 15.06397725307045
STARLINK-1523,46028,53.0547,0.0001548,15.06402646,546.1314056398396,548.2754910426456,1 46028U 20055B   26056.50264010 -.00000349  00000+0 -45144-5 0  9999,2 46028  53.0547 181.3270 0001548  94.0052 266.1114 15.06402646307067
STARLINK-1526,46029,53.0556,0.0002078,15.0643383,545.6688099158664,548.5469416862497,1 46029U 20055C   26056.49526056 -.00007110  00000+0 -45841-3 0  9994,2 46029  53.0556 181.3597 0002078  90.5256 269.5971 15.06433830307052
STARLINK-1555,46032,53.0523,0.0001817,15.06399975,545.9532987127786,548.469970406577,1 46032U 20055F   26056.74591228  .00000973  00000+0  84196-4 0  9994,2 46032  53.0523 180.2348 0001817  93.5876 266.5321 15.06399975307094
